0 WESTFORD NEEDLES
1 19299U 63014EL  13280.24303087  .00000256  00000-0  11671+0 0  6978
2 19299 087.3457 197.9496 0090816 073.5727 086.5432 08.66641163826360
0 WESTFORD NEEDLES
1 19299U 63014EL  13288.20629617  .00000295  00000-0  13463+0 0  6998
2 19299 087.3492 197.1931 0093995 066.0143 090.7975 08.66648034827055
0 WESTFORD NEEDLES
1 19299U 63014EL  13294.20926892  .00000333  00000-0  15166+0 0  7008
2 19299 087.3468 196.6217 0101935 061.3649 098.2216 08.66652619827574
